KUIPER-00615            
1 69774U 26151M   26192.16668980 -.00024840  00000+0 -66258-3 0  9991
2 69774  51.8775 199.8739 0006240 133.8226 279.5528 15.37194902  1304
KUIPER-00616            
1 69775U 26151N   26192.16668980 -.00024445  00000+0 -62799-3 0  9999
2 69775  51.8786 199.8043 0003219 110.1365 336.8391 15.38353554  1306
KUIPER-00617            
1 69776U 26151P   26192.16668980 -.00025246  00000+0 -66211-3 0  9993
2 69776  51.8798 199.8311 0004150 122.3856 310.1594 15.37737663  1309
KUIPER-00619            
1 69777U 26151Q   26192.16668980 -.00025028  00000+0 -64034-3 0  9993
2 69777  51.8805 199.7793 0001695  54.3740  41.7880 15.38498601  1424
KUIPER-00621            
1 69778U 26151R   26192.16668980 -.00025921  00000+0 -66820-3 0  9991
2 69778  51.8796 199.7990 0002075 102.0361 346.5855 15.38288864  2175
KUIPER-00622            
1 69779U 26151S   26192.16668980 -.00024762  00000+0 -66553-3 0  9997
2 69779  51.8734 199.8884 0006968 135.0374 272.2466 15.36954821  2035
KUIPER-00623            
1 69780U 26151T   26192.16668980 -.00024732  00000+0 -65548-3 0  9999
2 69780  51.8780 199.8534 0005143 122.0091 301.1470 15.37397770  2151
KUIPER-00626            
1 69781U 26151U   26192.16668980 -.00026141  00000+0 -73172-3 0  9998
2 69781  51.8715 199.9515 0010520 151.9974 224.0655 15.35695420  2391
KUIPER-00627            
1 69782U 26151V   26192.16668980 -.00022817  00000+0 -64069-3 0  9990
2 69782  51.8688 199.9683 0011388 154.5618 213.1941 15.35505620  1303
KUIPER-00629            
1 69783U 26151W   26192.16668980 -.00024502  00000+0 -65877-3 0  9992
2 69783  51.8744 199.8926 0007488 134.5322 270.4486 15.36932776  1725
KUIPER-00631            
1 69784U 26151X   26192.16668980 -.00025056  00000+0 -67889-3 0  9993
2 69784  51.8712 199.9080 0008035 141.8644 255.7671 15.36702928  1300
KUIPER-00634            
1 69785U 26151Y   26192.16668980 -.00025652  00000+0 -67390-3 0  9993
2 69785  51.8772 199.8396 0003831 122.8740 307.4804 15.37696323  1306
KUIPER-00639            
1 69786U 26151Z   26192.16668980 -.00027757  00000+0 -76993-3 0  9991
2 69786  51.8686 199.9370 0009793 147.9347 235.3733 15.36018704  1308
KUIPER-00641            
1 69787U 26151AA  26192.16668980 -.00027864  00000+0 -79194-3 0  9997
2 69787  51.8674 199.9676 0011004 148.9732 218.9221 15.35252257  2034
KUIPER-00644            
1 69788U 26151AB  26192.16668980 -.00023690  00000+0 -64484-3 0  9997
2 69788  51.8737 199.9198 0008723 144.5656 247.1762 15.36520749  2337
KUIPER-00646            
1 69789U 26151AC  26192.16668980 -.00022928  00000+0 -63446-3 0  9998
2 69789  51.8700 199.9339 0010186 148.4708 236.2789 15.35976076  1303
KUIPER-00647            
1 69790U 26151AD  26192.16668980 -.00026144  00000+0 -73337-3 0  9994
2 69790  51.8662 199.9615 0010657 150.8798 219.9389 15.35627117  2177
KUIPER-00662            
1 69791U 26151AE  26192.16668980 -.00023993  00000+0 -65123-3 0  9998
2 69791  51.8724 199.9137 0008684 139.5416 255.2407 15.36616485  1309
LINK                    
1 69792U 26152A   26191.79095455  .00090510  00000+0  81922-3 0  9991
2 69792  20.5848   1.2730 0023514 294.2343  65.5647 15.65950668  1169
2026-152B               
1 69793U 26152B   26191.73054166  .00041951  00000+0  40138-3 0  9999
2 69793  20.5985   1.8062 0022152 291.2307  68.5774 15.64467828  1153
ISS OBJECT YJ           
1 69794U 98067YJ  26191.40792322  .00022274  00000+0  39913-3 0  9997
2 69794  51.6301 185.1277 0007824 294.4662  65.5510 15.49832001  1251
ISS OBJECT YK           
1 69795U 98067YK  26191.40602809  .00042168  00000+0  73297-3 0  9995
2 69795  51.6301 185.1147 0006910 304.3877  55.6458 15.50360143  1258
ISS OBJECT YL           
1 69796U 98067YL  26191.40637347  .00032360  00000+0  56779-3 0  9990
2 69796  51.6300 185.1173 0008915 296.0075  63.9996 15.50205172  1249
ISS OBJECT YM           
1 69797U 98067YM  26191.34177797  .00032800  00000+0  57464-3 0  9993
2 69797  51.6301 185.4352 0009665 286.9825  73.0104 15.50233141  1225
ISS OBJECT YN           
1 69798U 98067YN  26191.40641795  .00022959  00000+0  40680-3 0  9991
2 69798  51.6301 185.1176 0009314 298.1188  61.8859 15.50120443  1250
ISS OBJECT YP           
1 69799U 98067YP  26191.40616730  .00032776  00000+0  57399-3 0  9996
2 69799  51.6300 185.1152 0009836 287.2373  72.7539 15.50243158  1242
STARLINK-37520          
1 69819U 26154A   26192.16668980 -.01569834  73923-3 -33604-2 0  9998
2 69819  53.1595 313.4603 0000683  70.9322 235.3287 15.98000612  2029
STARLINK-37553          
1 69820U 26154B   26192.16668980 -.01564558  73567-3 -33252-2 0  9991
2 69820  53.1593 313.4555 0000745  66.2659 242.2755 15.98128249  2029
STARLINK-37561          
1 69821U 26154C   26192.16668980 -.01597519  76565-3 -33679-2 0  9999
2 69821  53.1594 313.4506 0000644  68.8408 241.9889 15.98278216  2029
STARLINK-37521          
1 69822U 26154D   26192.16668980 -.01578955  75024-3 -33078-2 0  9995
2 69822  53.1594 313.4470 0000748  69.3822 243.2628 15.98387929  2029
